[Satellite]
VERSION=1.1
NAME=NOAA 2 [-]
NICKNAME=NOAA 2 [-]
TLE1=1 06235U 72082A   20157.88614300 -.00000040  00000-0  31707-4 0  9997
TLE2=2 06235 101.8498 127.6763 0004534  58.1070 356.7883 12.53124666179089
STATUS=2
